IRIDIUM 155             
1 43573U 18061E   25006.49831378  .00000195  00000+0  62604-4 0  9990
2 43573  86.3962 276.7576 0001851  89.9262 270.2146 14.34210468337861
IRIDIUM 154             
1 43574U 18061F   25006.47928709  .00000079  00000+0  21133-4 0  9997
2 43574  86.3964 276.8736 0002354  83.8438 276.3025 14.34213561337916
IRIDIUM 163             
1 43575U 18061G   25006.46025963  .00000354  00000+0  11952-3 0  9990
2 43575  86.3966 276.8132 0002034  81.3397 278.8029 14.34215109337888
IRIDIUM 156             
1 43576U 18061H   25006.50465977  .00000717  00000+0  24904-3 0  9993
2 43576  86.3962 276.8013 0001861  93.4678 266.6730 14.34215946337889
IRIDIUM 164             
1 43577U 18061J   25006.48563003  .00000324  00000+0  10850-3 0  9999
2 43577  86.3962 276.8413 0002368  84.5850 275.5616 14.34211097337920
IRIDIUM 159             
1 43578U 18061K   25006.24461627  .00000892  00000+0  31167-3 0  9997
2 43578  86.3962 276.8907 0002559  80.5660 279.5825 14.34201042337853
IRIDIUM 180             
1 43922U 19002A   25006.59295313  .00000047  00000+0  98354-5 0  9996
2 43922  86.3970 213.6266 0001881  86.5015 273.6396 14.34214121313516
IRIDIUM 176             
1 43923U 19002B   25006.61310110  .00001694  00000+0  26462-3 0  9991
2 43923  86.6095 213.6236 0002487  65.2151 294.9325 14.72282361321771
IRIDIUM 168             
1 43924U 19002C   25006.58660888  .00000277  00000+0  92028-4 0  9996
2 43924  86.3973 213.6917 0002082  84.6027 275.5406 14.34216307313498
IRIDIUM 173             
1 43925U 19002D   25006.57392397  .00000085  00000+0  23230-4 0  9999
2 43925  86.3967 213.6075 0001917  88.3170 271.8246 14.34216427313475
IRIDIUM 169             
1 43926U 19002E   25006.57595639  .00000605  00000+0  19121-3 0  9995
2 43926  86.4218 245.2154 0000320  84.5883 275.5352 14.38599370314511
IRIDIUM 172             
1 43927U 19002F   25006.28850043  .00000357  00000+0  12030-3 0  9993
2 43927  86.3967 213.7330 0002087  85.1036 275.0398 14.34220562313443
IRIDIUM 175             
1 43928U 19002G   25006.53980356  .00003013  00000+0  47343-3 0  9990
2 43928  86.1529 175.3666 0001895 134.7484 225.3887 14.72277665321757
IRIDIUM 171             
1 43929U 19002H   25006.26946396  .00000482  00000+0  16492-3 0  9995
2 43929  86.3977 213.9889 0002233  96.4891 263.6559 14.34224389313436
IRIDIUM 170             
1 43930U 19002J   25006.41537845  .00001404  00000+0  21859-3 0  9997
2 43930  86.6098 213.7117 0002292  80.5078 279.6398 14.72285431321752
IRIDIUM 167             
1 43931U 19002K   25006.61197812  .00000497  00000+0  17048-3 0  9992
2 43931  86.3969 213.6158 0001986 100.7584 259.3835 14.34216891313481
IRIDIUM 181             
1 56726U 23068S   25006.48188156  .00001091  00000+0  31647-3 0  9993
2 56726  86.6866 276.5821 0002620  89.3331 270.8171 14.43577166 86460
IRIDIUM 177             
1 56727U 23068T   25006.57077042  .00003255  00000+0  42452-3 0  9995
2 56727  86.1968 218.7800 0001950  87.7335 272.4109 14.80270143 88462
IRIDIUM 174             
1 56728U 23068U   25006.56543568  .00003217  00000+0  41990-3 0  9990
2 56728  86.1976 218.9025 0002498  86.1210 274.0297 14.80231453 88463
IRIDIUM 178             
1 56729U 23068V   25006.62761828  .00003087  00000+0  40277-3 0  9991
2 56729  86.5765 245.9603 0003040  86.5378 273.6192 14.80234422 88478
IRIDIUM 179             
1 56730U 23068W   25006.62221145  .00003320  00000+0  43367-3 0  9999
2 56730  86.6772 252.6584 0002298  87.1248 273.0236 14.80215871 88479
